{"type": "FeatureCollection", "features": [ {"type": "Feature", "properties": {"norad_id": 40118, "name": "GAOFEN-2", "group": "resource", "lat": -22.603170148022528, "lon": -128.48839500232305, "alt_km": 635.3412663898907, "timestamp": "2025-12-21T16:47:54.385933+00:00", "meta": {"OBJECT_NAME": "GAOFEN-2", "OBJECT_ID": "2014-049A", "EPOCH": "2025-12-21T12:38:33.577728", "MEAN_MOTION": 14.8062316, "ECCENTRICITY": 0.0008758, "INCLINATION": 98.0377, "RA_OF_ASC_NODE": 54.7108, "ARG_OF_PERICENTER": 88.6469, "MEAN_ANOMALY": 271.5746, "EPHEMERIS_TYPE": 0, "CLASSIFICATION_TYPE": "U", "NORAD_CAT_ID": 40118, "ELEMENT_SET_NO": 999, "REV_AT_EPOCH": 61294, "BSTAR": 0.00011761, "MEAN_MOTION_DOT": 8.5e-06, "MEAN_MOTION_DDOT": 0}, "tle": {"line1": "1 40118U 14049A   25355.52677752  .00000850  00000+0  11761-3 0  9994", "line2": "2 40118  98.0377  54.7108 0008758  88.6469 271.5746 14.80623160612949"}}, "geometry": {"type": "Point", "coordinates": [-128.48839500232305, -22.603170148022528]}}, {"type": "Feature", "properties": {"norad_id": 40143, "name": "YAOGAN-21", "group": "resource", "lat": 64.98815493845429, "lon": -125.71349036371865, "alt_km": 489.4122746523244, "timestamp": "2025-12-21T16:47:54.385944+00:00", "meta": {"OBJECT_NAME": "YAOGAN-21", "OBJECT_ID": "2014-053A", "EPOCH": "2025-12-21T13:08:54.240000", "MEAN_MOTION": 15.23758692, "ECCENTRICITY": 0.0008967, "INCLINATION": 97.1741, "RA_OF_ASC_NODE": 38.4784, "ARG_OF_PERICENTER": 13.1764, "MEAN_ANOMALY": 346.9707, "EPHEMERIS_TYPE": 0, "CLASSIFICATION_TYPE": "U", "NORAD_CAT_ID": 40143, "ELEMENT_SET_NO": 999, "REV_AT_EPOCH": 62788, "BSTAR": 0.00022261, "MEAN_MOTION_DOT": 5.291e-05, "MEAN_MOTION_DDOT": 0}, "tle": {"line1": "1 40143U 14053A   25355.54785000  .00005291  00000+0  22261-3 0  9996", "line2": "2 40143  97.1741  38.4784 0008967  13.1764 346.9707 15.23758692627884"}}, "geometry": {"type": "Point", "coordinates": [-125.71349036371865, 64.98815493845429]}}, {"type": "Feature", "properties": {"norad_id": 40275, "name": "YAOGAN-22", "group": "resource", "lat": 77.92452006620671, "lon": 76.70342855598933, "alt_km": 1198.1032505401026, "timestamp": "2025-12-21T16:47:54.385955+00:00", "meta": {"OBJECT_NAME": "YAOGAN-22", "OBJECT_ID": "2014-063A", "EPOCH": "2025-12-21T09:04:09.447168", "MEAN_MOTION": 13.15522911, "ECCENTRICITY": 0.0006038, "INCLINATION": 100.7428, "RA_OF_ASC_NODE": 138.9195, "ARG_OF_PERICENTER": 227.5245, "MEAN_ANOMALY": 132.5356, "EPHEMERIS_TYPE": 0, "CLASSIFICATION_TYPE": "U", "NORAD_CAT_ID": 40275, "ELEMENT_SET_NO": 999, "REV_AT_EPOCH": 53643, "BSTAR": 4.2583e-05, "MEAN_MOTION_DOT": -3.1e-07, "MEAN_MOTION_DDOT": 0}, "tle": {"line1": "1 40275U 14063A   25355.37788712 -.00000031  00000+0  42583-4 0  9995", "line2": "2 40275 100.7428 138.9195 0006038 227.5245 132.5356 13.15522911536438"}}, "geometry": {"type": "Point", "coordinates": [76.70342855598933, 77.92452006620671]}}, {"type": "Feature", "properties": {"norad_id": 40298, "name": "ASNARO", "group": "resource", "lat": 28.248172533835167, "lon": 67.44359715357506, "alt_km": 504.2896101811666, "timestamp": "2025-12-21T16:47:54.385965+00:00", "meta": {"OBJECT_NAME": "ASNARO", "OBJECT_ID": "2014-070A", "EPOCH": "2025-12-21T11:55:56.969760", "MEAN_MOTION": 15.19660474, "ECCENTRICITY": 0.00057, "INCLINATION": 97.3647, "RA_OF_ASC_NODE": 71.2306, "ARG_OF_PERICENTER": 98.4606, "MEAN_ANOMALY": 261.7275, "EPHEMERIS_TYPE": 0, "CLASSIFICATION_TYPE": "U", "NORAD_CAT_ID": 40298, "ELEMENT_SET_NO": 999, "REV_AT_EPOCH": 61702, "BSTAR": 0.00046643, "MEAN_MOTION_DOT": 9.89e-05, "MEAN_MOTION_DDOT": 0}, "tle": {"line1": "1 40298U 14070A   25355.49718715  .00009890  00000+0  46643-3 0  9998", "line2": "2 40298  97.3647  71.2306 0005700  98.4606 261.7275 15.19660474617024"}}, "geometry": {"type": "Point", "coordinates": [67.44359715357506, 28.248172533835167]}}, {"type": "Feature", "properties": {"norad_id": 40310, "name": "YAOGAN-24", "group": "resource", "lat": 42.91983249856544, "lon": 119.20939329010565, "alt_km": 633.7575555352114, "timestamp": "2025-12-21T16:47:54.385975+00:00", "meta": {"OBJECT_NAME": "YAOGAN-24", "OBJECT_ID": "2014-072A", "EPOCH": "2025-12-21T13:20:55.163328", "MEAN_MOTION": 14.76194839, "ECCENTRICITY": 0.0015145, "INCLINATION": 98.1227, "RA_OF_ASC_NODE": 126.6969, "ARG_OF_PERICENTER": 111.6077, "MEAN_ANOMALY": 248.6748, "EPHEMERIS_TYPE": 0, "CLASSIFICATION_TYPE": "U", "NORAD_CAT_ID": 40310, "ELEMENT_SET_NO": 999, "REV_AT_EPOCH": 59751, "BSTAR": 0.00015215, "MEAN_MOTION_DOT": 1.001e-05, "MEAN_MOTION_DDOT": 0}, "tle": {"line1": "1 40310U 14072A   25355.55619402  .00001001  00000+0  15215-3 0  9992", "line2": "2 40310  98.1227 126.6969 0015145 111.6077 248.6748 14.76194839597515"}}, "geometry": {"type": "Point", "coordinates": [119.20939329010565, 42.91983249856544]}}, {"type": "Feature", "properties": {"norad_id": 40336, "name": "CBERS 4", "group": "resource", "lat": -80.59125297103411, "lon": 115.56241747543733, "alt_km": 781.9655891575549, "timestamp": "2025-12-21T16:47:54.385986+00:00", "meta": {"OBJECT_NAME": "CBERS 4", "OBJECT_ID": "2014-079A", "EPOCH": "2025-12-21T12:10:42.277728", "MEAN_MOTION": 14.35521328, "ECCENTRICITY": 0.0001821, "INCLINATION": 98.3301, "RA_OF_ASC_NODE": 53.2245, "ARG_OF_PERICENTER": 102.262, "MEAN_ANOMALY": 257.8771, "EPHEMERIS_TYPE": 0, "CLASSIFICATION_TYPE": "U", "NORAD_CAT_ID": 40336, "ELEMENT_SET_NO": 999, "REV_AT_EPOCH": 57846, "BSTAR": 0.00011944, "MEAN_MOTION_DOT": 3.02e-06, "MEAN_MOTION_DDOT": 0}, "tle": {"line1": "1 40336U 14079A   25355.50743377  .00000302  00000+0  11944-3 0  9999", "line2": "2 40336  98.3301  53.2245 0001821 102.2620 257.8771 14.35521328578469"}}, "geometry": {"type": "Point", "coordinates": [115.56241747543733, -80.59125297103411]}}, {"type": "Feature", "properties": {"norad_id": 40362, "name": "YAOGAN-26", "group": "resource", "lat": -24.656223563489586, "lon": -0.6818898002124606, "alt_km": 449.96006456446776, "timestamp": "2025-12-21T16:47:54.385996+00:00", "meta": {"OBJECT_NAME": "YAOGAN-26", "OBJECT_ID": "2014-088A", "EPOCH": "2025-12-21T12:13:35.184000", "MEAN_MOTION": 15.3958648, "ECCENTRICITY": 0.0005028, "INCLINATION": 97.0635, "RA_OF_ASC_NODE": 355.8714, "ARG_OF_PERICENTER": 3.6849, "MEAN_ANOMALY": 356.4434, "EPHEMERIS_TYPE": 0, "CLASSIFICATION_TYPE": "U", "NORAD_CAT_ID": 40362, "ELEMENT_SET_NO": 999, "REV_AT_EPOCH": 61029, "BSTAR": 0.00042898, "MEAN_MOTION_DOT": 0.00016829, "MEAN_MOTION_DDOT": 0}, "tle": {"line1": "1 40362U 14088A   25355.50943500  .00016829  00000+0  42898-3 0  9991", "line2": "2 40362  97.0635 355.8714 0005028   3.6849 356.4434 15.39586480610291"}}, "geometry": {"type": "Point", "coordinates": [-0.6818898002124606, -24.656223563489586]}}, {"type": "Feature", "properties": {"norad_id": 40376, "name": "SMAP", "group": "resource", "lat": -65.20379586024683, "lon": 18.31646888658837, "alt_km": 690.3798344826919, "timestamp": "2025-12-21T16:47:54.386006+00:00", "meta": {"OBJECT_NAME": "SMAP", "OBJECT_ID": "2015-003A", "EPOCH": "2025-12-21T12:10:43.578912", "MEAN_MOTION": 14.63355199, "ECCENTRICITY": 0.0001229, "INCLINATION": 98.1288, "RA_OF_ASC_NODE": 0.1049, "ARG_OF_PERICENTER": 91.1808, "MEAN_ANOMALY": 268.9535, "EPHEMERIS_TYPE": 0, "CLASSIFICATION_TYPE": "U", "NORAD_CAT_ID": 40376, "ELEMENT_SET_NO": 999, "REV_AT_EPOCH": 58163, "BSTAR": 9.086e-05, "MEAN_MOTION_DOT": 4.22e-06, "MEAN_MOTION_DDOT": 0}, "tle": {"line1": "1 40376U 15003A   25355.50744883  .00000422  00000+0  90860-4 0  9992", "line2": "2 40376  98.1288   0.1049 0001229  91.1808 268.9535 14.63355199581630"}}, "geometry": {"type": "Point", "coordinates": [18.31646888658837, -65.20379586024683]}}, {"type": "Feature", "properties": {"norad_id": 40536, "name": "KOMPSAT-3A", "group": "resource", "lat": 64.82857945534248, "lon": -46.14298416988484, "alt_km": 424.43191895483415, "timestamp": "2025-12-21T16:47:54.386017+00:00", "meta": {"OBJECT_NAME": "KOMPSAT-3A", "OBJECT_ID": "2015-014A", "EPOCH": "2025-12-21T11:50:54.378816", "MEAN_MOTION": 15.44241535, "ECCENTRICITY": 0.0005524, "INCLINATION": 97.6795, "RA_OF_ASC_NODE": 330.3253, "ARG_OF_PERICENTER": 107.3784, "MEAN_ANOMALY": 252.8068, "EPHEMERIS_TYPE": 0, "CLASSIFICATION_TYPE": "U", "NORAD_CAT_ID": 40536, "ELEMENT_SET_NO": 999, "REV_AT_EPOCH": 59430, "BSTAR": 0.00034447, "MEAN_MOTION_DOT": 0.00015754, "MEAN_MOTION_DDOT": 0}, "tle": {"line1": "1 40536U 15014A   25355.49368494  .00015754  00000+0  34447-3 0  9992", "line2": "2 40536  97.6795 330.3253 0005524 107.3784 252.8068 15.44241535594304"}}, "geometry": {"type": "Point", "coordinates": [-46.14298416988484, 64.82857945534248]}}, {"type": "Feature", "properties": {"norad_id": 40697, "name": "SENTINEL-2A", "group": "resource", "lat": -14.036161986756078, "lon": -114.05451595672152, "alt_km": 793.8244317273848, "timestamp": "2025-12-21T16:47:54.386027+00:00", "meta": {"OBJECT_NAME": "SENTINEL-2A", "OBJECT_ID": "2015-028A", "EPOCH": "2025-12-21T12:32:15.479232", "MEAN_MOTION": 14.30809738, "ECCENTRICITY": 0.0001085, "INCLINATION": 98.5742, "RA_OF_ASC_NODE": 67.932, "ARG_OF_PERICENTER": 87.2657, "MEAN_ANOMALY": 272.865, "EPHEMERIS_TYPE": 0, "CLASSIFICATION_TYPE": "U", "NORAD_CAT_ID": 40697, "ELEMENT_SET_NO": 999, "REV_AT_EPOCH": 54832, "BSTAR": 0.00019105, "MEAN_MOTION_DOT": 4.57e-06, "MEAN_MOTION_DDOT": 0}, "tle": {"line1": "1 40697U 15028A   25355.52240138  .00000457  00000+0  19105-3 0  9991", "line2": "2 40697  98.5742  67.9320 0001085  87.2657 272.8650 14.30809738548324"}}, "geometry": {"type": "Point", "coordinates": [-114.05451595672152, -14.036161986756078]}}]}